[{"OBJECT_NAME":"TIANQI-15","OBJECT_ID":"2021-065B","EPOCH":"2026-03-09T19:28:45.472224","MEAN_MOTION":15.09508085,"ECCENTRICITY":0.00070671,"INCLINATION":34.9979,"RA_OF_ASC_NODE":108.242,"ARG_OF_PERICENTER":250.7766,"MEAN_ANOMALY":109.218,"EPHEMERIS_TYPE":0,"CLASSIFICATION_TYPE":"U","NORAD_CAT_ID":49027,"ELEMENT_SET_NO":999,"REV_AT_EPOCH":25424,"BSTAR":0.00041179088,"MEAN_MOTION_DOT":6.722e-5,"MEAN_MOTION_DDOT":0},{"OBJECT_NAME":"STARLINK-3628","OBJECT_ID":"2022-017R","EPOCH":"2026-03-09T21:59:21.071904","MEAN_MOTION":15.08833646,"ECCENTRICITY":0.00015326,"INCLINATION":53.2201,"RA_OF_ASC_NODE":338.1594,"ARG_OF_PERICENTER":112.9862,"MEAN_ANOMALY":247.1292,"EPHEMERIS_TYPE":0,"CLASSIFICATION_TYPE":"U","NORAD_CAT_ID":51783,"ELEMENT_SET_NO":999,"REV_AT_EPOCH":22245,"BSTAR":1.1184792e-5,"MEAN_MOTION_DOT":-1.1e-6,"MEAN_MOTION_DDOT":0}]
